1 57463U 23107G   23321.48672778  .00003281  00000+0  25782-3 0  9998
2 57463  43.0010 240.7050 0001080 273.2963  86.7756 15.02535534 18274
STARLINK-30115          
1 57464U 23107H   23321.58334491  .00031180  00000+0  23632-2 0  9997
2 57464  43.0005 240.1288 0001732 276.2811 267.3507 15.01721525  5717
STARLINK-30116          
1 57465U 23107J   23321.49005737  .00004480  00000+0  34651-3 0  9993
2 57465  43.0019 240.7282 0001284 259.8301 100.2397 15.02537368 18274
STARLINK-30092          
1 57467U 23107L   23321.81245965  .00000756  00000+0  70997-4 0  9996
2 57467  43.0013 238.8475 0001095 268.3847  91.6870 15.02536207 18395
STARLINK-30039          
1 57468U 23107M   23321.80913172  .00000345  00000+0  40597-4 0  9995
2 57468  43.0014 238.8216 0000977 278.8239  81.2493 15.02533004 18207
STARLINK-30171          
1 57469U 23107N   23321.20418593  .00017542  00000+0  13101-2 0  9993
2 57469  43.0016 242.0254 0001362 270.3009  89.7678 15.02545244 18230
STARLINK-30186          
1 57470U 23107P   23321.80580008  .00005889  00000+0  45047-3 0  9998
2 57470  43.0013 238.7959 0000745 299.5836  60.4932 15.02551619 18106
STARLINK-30190          
1 57471U 23107Q   23321.79248118  .00003035  00000+0  23962-3 0  9993
2 57471  43.0018 238.6972 0000975 263.1055  96.9677 15.02535245 18300
STARLINK-30204          
1 57472U 23107R   23321.46675095  .00010222  00000+0  77052-3 0  9991
2 57472  43.0017 240.5529 0000776 304.6830  55.3939 15.02542650 18275
STARLINK-30187          
1 57473U 23107S   23321.79580936  .00003676  00000+0  28706-3 0  9994
2 57473  43.0009 238.7145 0001197 269.9025  90.1680 15.02534456 18317
STARLINK-30110          
1 57474U 23107T   23321.85562842  .00000341  00000+0  40326-4 0  9997
2 57474  43.0014 238.3099 0001467 267.3021  92.7653 15.02532612 18226
STARLINK-30155          
1 57475U 23107U   23321.85229922  .00000028  00000+0  17150-4 0  9998
2 57475  43.0009 238.2828 0001201 266.1705  93.9000 15.02535339 18220
STARLINK-30161          
1 57476U 23107V   23321.84896841  .00011465  00000+0  86228-3 0  9996
2 57476  43.0013 238.2590 0001330 263.0397  97.0294 15.02539742 18321
STARLINK-30176          
1 57477U 23107W   23321.84674994 -.00000966  00000+0 -56424-4 0  9992
2 57477  43.0007 238.2418 0001073 274.3480  85.7239 15.02532986 18119
STARLINK-30154          
1 57495U 23113A   23321.60225773 -.00000352  00000+0 -10965-4 0  9999
2 57495  43.0033 278.7933 0000955 272.3317  87.7416 15.02536426 16675
STARLINK-30145          
1 57496U 23113B   23321.58560241 -.00004840  00000+0 -34353-3 0  9991
2 57496  43.0030 278.6796 0001206 266.9708  93.0996 15.02525126 16726
STARLINK-30226          
1 57497U 23113C   23321.58227977  .00001519  00000+0  12749-3 0  9991
2 57497  43.0032 278.6660 0000799 262.5356  97.5396 15.02534451 16731
STARLINK-30203          
1 57498U 23113D   23321.30637919  .00000003  00000+0  15280-4 0  9994
2 57498  43.0024 280.0282 0000941 260.5275  99.5461 15.02536839 16813
STARLINK-30169          
1 57499U 23113E   23321.83692286 -.00001527  00000+0 -66315-4 0  9990
2 57499  43.0018 268.6485 0001436 260.6837  99.3847 15.15944985 16814
STARLINK-30164          
1 57500U 23113F   23321.36286443  .00004458  00000+0  34478-3 0  9993
2 57500  43.0023 279.5887 0000979 274.6404  85.4326 15.02544171 16802
STARLINK-30072          
1 57501U 23113G   23321.35620441  .00004529  00000+0  35008-3 0  9992
2 57501  43.0020 279.5318 0001050 278.1857  81.8866 15.02539682 16698
STARLINK-30228          
1 57502U 23113H   23321.58894001  .00002570  00000+0  20524-3 0  9994
2 57502  43.0018 278.6927 0000968 271.0502  89.0230 15.02534967 16728
STARLINK-30230          
1 57503U 23113J   23321.36619011  .00002453  00000+0  19658-3 0  9993
2 57503  43.0024 279.6083 0001474 264.2077  95.8598 15.02540273 16699
STARLINK-30213          
1 57504U 23113K   23321.61890481 -.00001637  00000+0 -10613-3 0  9991
2 57504  43.0022 278.9111 0000671 272.3778  87.6988 15.02537300 16833
STARLINK-30227          
1 57505U 23113L   23321.85843455  .00003289  00000+0  25846-3 0  9994
2 57505  43.0014 264.2660 0000979 274.3704  85.7027 15.02535756 17088
STARLINK-30212          
1 57506U 23113M   23321.61557289  .00006362  00000+0  48559-3 0  9997
2 57506  43.0023 278.8921 0000963 269.7719  90.3013 15.02538445 16676
STARLINK-30219          
1 57507U 23113N   23321.61225093 -.00000206  00000+0 -20922-6 0  9993
2 57507  43.0015 278.8800 0000813 266.2965  93.7784 15.02531221 16838
STARLINK-30074          
1 57508U 23113P   23321.35953147  .00003018  00000+0  23834-3 0  9997
2 57508  43.0020 279.5579 0000884 259.6212 100.4530 15.02544244 16592
STARLINK-30082          
1 57509U 23113Q   23321.33301490  .00007475  00000+0  56780-3 0  9991
2 57509  43.0023 280.2251 0001457 277.2090  82.8587 15.02540107 16790
STARLINK-30153          
1 57510U 23113R   23321.39615775 -.00003697  00000+0 -25882-3 0  9996
2 57510  43.0016 279.8495 0001141 267.2582  92.8130 15.02529101 16698
STARLINK-30147          
1 57511U 23113S   23321.60559864  .00013474  00000+0  10104-2 0  9999
2 57511  43.0011 278.8302 0000918 280.5744  79.4995 15.02542779 16831
STARLINK-30157          
1 57512U 23113T   23321.51874236  .00001785  00000+0  10326-3 0  9992
2 57512  43.0013 260.1230 0001044 274.1183  85.9545 15.15939341 17041
STARLINK-30168          
1 57513U 23113U   23321.60891486  .00000445  00000+0  48037-4 0  9992
2 57513  43.0019 278.8252 0000911 263.1365  96.9374 15.02534195 16674
STARLINK-30231          
1 57514U 23113V   23321.32635337  .00001230  00000+0  10607-3 0  9997
2 57514  43.0020 280.1651 0000878 272.4584  87.6158 15.02537655 16798
STARLINK-30081          
1 57515U 23113X   23321.57894194 -.00001833  00000+0 -12066-3 0  9995
2 57515  43.0023 278.6402 0001505 260.2235  99.8438 15.02536701 16836
STARLINK-30149          
1 57516U 23113Y   23321.56896142  .00000375  00000+0  42821-4 0  9991
2 57516  43.0018 278.5646 0000714 261.7985  98.2777 15.02534791 16734
STARLINK-30259          
1 57521U 23115A   23321.56931926 -.00000989  00000+0 -58148-4 0  9991
2 57521  43.0020 266.3173 0001100 266.5818  93.4898 15.02538260 16704
STARLINK-30256          
1 57522U 23115B   23321.83190399  .00010425  00000+0  78551-3 0  9996
2 57522  43.0025 264.8406 0000885 271.2302  88.8439 15.02541350 16378
STARLINK-30261          
1 57523U 23115C   23321.56266126  .00001131  00000+0  98813-4 0  9997
2 57523  43.0009 266.2595 0000866 262.5884  97.4860 15.02534423 16482
STARLINK-30260          
1 57524U 23115D   23321.55933533  .00001348  00000+0  11487-3 0  9991
2 57524  42.9995 266.2541 0001144 263.5818  96.4894 15.02536487 15481
STARLINK-30253          
1 57525U 23115E   23321.54933862  .00004922  00000+0  37922-3 0  9999
2 57525  43.0019 266.1633 0001251 258.2324 101.8378 15.02530935 16430
STARLINK-30257          
1 57526U 23115F   23321.55267722  .00000123  00000+0  24138-4 0  9991
2 57526  43.0020 266.2116 0001056 275.1478  84.9244 15.02533805 15487
STARLINK-30250          
1 57527U 23115G   23321.54601319  .00004143  00000+0  32156-3 0  9999
2 57527  43.0025 266.1496 0001187 268.7550  91.3156 15.02542956 16388
STARLINK-30269          
1 57528U 23115H   23321.53269576  .00001187  00000+0  10295-3 0  9999
2 57528  43.0017 266.0628 0000957 274.3357  85.7376 15.02536369 15480
STARLINK-30266          
1 57529U 23115J   23321.85509420  .00005082  00000+0  39098-3 0  9990
2 57529  43.0022 264.1671 0000932 282.4946  77.5792 15.02538098 16574
STARLINK-30270          
1 57530U 23115K   23321.86175648 -.00001910  00000+0 -12639-3 0  9994
2 57530  43.0009 264.2224 0000634 265.7739  94.3031 15.02541703 16647
STARLINK-30268          
1 57531U 23115L   23321.54268571  .00001311  00000+0  11215-3 0  9990
2 57531  43.0020 266.1276 0001133 283.8859  76.1857 15.02527717 16438
STARLINK-30251          
1 57532U 23115M   23321.33991822  .00009895  00000+0  74615-3 0  9998
2 57532  43.0017 267.1923 0000908 255.7920 104.2821 15.02553878 15453
STARLINK-30254          
1 57533U 23115N   23321.58334491  .00207381  00000+0  99434-3 0  9995
2 57533  42.9962 229.4263 0016310 218.5696  34.3672 15.81162931  5965
STARLINK-30264          
1 57534U 23115P   23321.82753267  .00013253  00000+0  68866-3 0  9997
2 57534  43.0015 257.1809 0001096 290.0816  69.9913 15.15977904 16825
STARLINK-30262          
1 57535U 23115Q   23321.58252480  .00001190  00000+0  10311-3 0  9991
2 57535  43.0011 265.5582 0000717 277.5932  82.4829 15.02535707 15496
STARLINK-30166          
1 57602U 23119A   23321.43135409  .00001665  00000+0  13832-3 0  9993
2 57602  43.0008 344.0093 0000751 267.7592  92.3165 15.02535244 16173
STARLINK-30223          
1 57603U 23119B   23321.74376412  .00001914  00000+0  15674-3 0  9992
2 57603  43.0020 342.0531 0001000 278.4465  81.6264 15.02537189 16271
STARLINK-30218          
1 57604U 23119C   23321.75042034  .00001199  00000+0  10382-3 0  9990
2 57604  43.0030 342.1035 0000935 289.0109  71.0632 15.02542445 16275
STARLINK-30138          
1 57605U 23119D   23321.54766245  .00002284  00000+0  18409-3 0  9999
2 57605  43.0016 343.1615 0001087 276.9653  83.1066 15.02536670 16259
STARLINK-30255          
1 57606U 23119E   23321.45343345 -.00000332  00000+0 -95043-5 0  9997
2 57606  43.0016 343.3170 0001150 265.6614  94.4097 15.02531154 16241
STARLINK-30252          
1 57607U 23119F   23321.75506009  .00001242  00000+0  74820-4 0  9997
2 57607  43.0017 331.9400 0001474 271.9772  88.0907 15.16279381 16342
STARLINK-30258          
1 57608U 23119G   23321.53767265  .00001191  00000+0  10319-3 0  9992
2 57608  43.0008 343.0887 0001056 287.1658  72.9068 15.02534712 16251
STARLINK-30174          
1 57609U 23119H   23321.46453714  .00006928  00000+0  52735-3 0  9997
2 57609  43.0012 343.3982 0001096 268.4795  91.5921 15.02538495 16240
STARLINK-30248          
1 57610U 23119J   23321.53434387  .00010822  00000+0  81487-3 0  9996
